CCSDS_OMM_VERS,COMMENT,CREATION_DATE,ORIGINATOR,OBJECT_NAME,OBJECT_ID,CENTER_NAME,REF_FRAME,TIME_SYSTEM,MEAN_ELEMENT_THEORY,EPOCH,MEAN_MOTION,ECCENTRICITY,INCLINATION,RA_OF_ASC_NODE,ARG_OF_PERICENTER,MEAN_ANOMALY,EPHEMERIS_TYPE,CLASSIFICATION_TYPE,NORAD_CAT_ID,ELEMENT_SET_NO,REV_AT_EPOCH,BSTAR,MEAN_MOTION_DOT,MEAN_MOTION_DDOT,SEMIMAJOR_AXIS,PERIOD,APOAPSIS,PERIAPSIS,OBJECT_TYPE,RCS_SIZE,COUNTRY_CODE,LAUNCH_DATE,SITE,DECAY_DATE,FILE,GP_ID,TLE_LINE0,TLE_LINE1,TLE_LINE2
"2.0","GENERATED VIA SPACE-TRACK.ORG API","2020-08-27T04:36:14","18 SPCS","COSMOS 2498","2014-028C","EARTH","TEME","UTC","SGP4","2020-08-26T16:09:04.060224","12.42888128","0.00207400","82.4516","357.0940","14.9594","345.2101","0","U","39763","999","28416","0.00001622100000","0.00000012","0.0000000000000","7872.520","115.859","1510.713","1478.058","PAYLOAD","LARGE","CIS","2014-05-23","PKMTR","","2809187","160204416","0 COSMOS 2498","1 39763U 14028C   20239.67296366 +.00000012 +00000-0 +16221-4 0  9993","2 39763 082.4516 357.0940 0020740 014.9594 345.2101 12.42888128284160"
"2.0","GENERATED VIA SPACE-TRACK.ORG API","2020-08-27T04:36:14","18 SPCS","COSMOS 1732","1986-015A","EARTH","TEME","UTC","SGP4","2020-08-26T13:18:48.052512","12.40986272","0.00269870","73.6077","267.1994","223.2759","136.6165","0","U","16593","999","56473","0.00004113300000","-0.00000012","0.0000000000000","7880.561","116.036","1523.694","1481.159","PAYLOAD","LARGE","CIS","1986-02-11","PKMTR","","2809187","160192596","0 COSMOS 1732","1 16593U 86015A   20239.55472283 -.00000012 +00000-0 +41133-4 0  9996","2 16593 073.6077 267.1994 0026987 223.2759 136.6165 12.40986272564730"
"2.0","GENERATED VIA SPACE-TRACK.ORG API","2020-08-26T21:10:42","18 SPCS","COSMOS 1732","1986-015A","EARTH","TEME","UTC","SGP4","2020-08-26T11:22:43.609440","12.40986251","0.00269900","73.6077","267.3074","223.3927","136.4992","0","U","16593","999","56472","0.00002464300000","-0.00000014","0.0000000000000","7880.562","116.036","1523.696","1481.157","PAYLOAD","LARGE","CIS","1986-02-11","PKMTR","","2809045","160168289","0 COSMOS 1732","1 16593U 86015A   20239.47411585 -.00000014 +00000-0 +24643-4 0  9994","2 16593 073.6077 267.3074 0026990 223.3927 136.4992 12.40986251564725"
"2.0","GENERATED VIA SPACE-TRACK.ORG API","2020-08-26T21:10:42","18 SPCS","COSMOS 2498","2014-028C","EARTH","TEME","UTC","SGP4","2020-08-26T10:21:19.306944","12.42888080","0.00207530","82.4515","357.2452","15.4978","344.6742","0","U","39763","999","28413","-0.00001201800000","0.00000008","0.0000000000000","7872.520","115.859","1510.723","1478.048","PAYLOAD","LARGE","CIS","2014-05-23","PKMTR","","2809045","160181053","0 COSMOS 2498","1 39763U 14028C   20239.43147346 +.00000008 +00000-0 -12018-4 0  9996","2 39763 082.4515 357.2452 0020753 015.4978 344.6742 12.42888080284133"
"2.0","GENERATED VIA SPACE-TRACK.ORG API","2020-08-26T04:46:09","18 SPCS","COSMOS 2498","2014-028C","EARTH","TEME","UTC","SGP4","2020-08-26T03:16:43.283712","12.42887972","0.00207440","82.4514","357.4303","16.1844","105.3024","0","U","39763","999","28409","-0.00005906200000","0.00000002","0.0000000000000","7872.521","115.859","1510.717","1478.055","PAYLOAD","LARGE","CIS","2014-05-23","PKMTR","","2808574","160155429","0 COSMOS 2498","1 39763U 14028C   20239.13661208  .00000002  00000-0 -59062-4 0  9995","2 39763  82.4514 357.4303 0020744  16.1844 105.3024 12.42887972284098"
"2.0","GENERATED VIA SPACE-TRACK.ORG API","2020-08-26T03:38:10","18 SPCS","COSMOS 1732","1986-015A","EARTH","TEME","UTC","SGP4","2020-08-25T19:54:08.056224","12.40986248","0.00269930","73.6078","268.1717","224.2926","135.5958","0","U","16593","999","56464","-0.00000266760000","-0.00000018","0.0000000000000","7880.562","116.036","1523.699","1481.155","PAYLOAD","LARGE","CIS","1986-02-11","PKMTR","","2808553","160138262","0 COSMOS 1732","1 16593U 86015A   20238.82925991 -.00000018 +00000-0 -26676-5 0  9997","2 16593 073.6078 268.1717 0026993 224.2926 135.5958 12.40986248564640"
"2.0","GENERATED VIA SPACE-TRACK.ORG API","2020-08-26T03:38:10","18 SPCS","COSMOS 2498","2014-028C","EARTH","TEME","UTC","SGP4","2020-08-25T16:58:05.003904","12.42888032","0.00207780","82.4516","357.6987","17.1078","343.0702","0","U","39763","999","28404","-0.00003117000000","0.00000006","0.0000000000000","7872.521","115.859","1510.743","1478.028","PAYLOAD","LARGE","CIS","2014-05-23","PKMTR","","2808553","160149363","0 COSMOS 2498","1 39763U 14028C   20238.70700236 +.00000006 +00000-0 -31170-4 0  9996","2 39763 082.4516 357.6987 0020778 017.1078 343.0702 12.42888032284044"
"2.0","GENERATED VIA SPACE-TRACK.ORG API","2020-08-25T17:47:59","18 SPCS","COSMOS 1732","1986-015A","EARTH","TEME","UTC","SGP4","2020-08-25T12:09:50.278752","12.40986248","0.00269990","73.6078","268.6038","224.7418","135.1447","0","U","16593","999","56460","-0.00001651700000","-0.00000020","0.0000000000000","7880.562","116.036","1523.703","1481.150","PAYLOAD","LARGE","CIS","1986-02-11","PKMTR","","2808324","160113618","0 COSMOS 1732","1 16593U 86015A   20238.50683193 -.00000020 +00000-0 -16517-4 0  9992","2 16593 073.6078 268.6038 0026999 224.7418 135.1447 12.40986248564603"
"2.0","GENERATED VIA SPACE-TRACK.ORG API","2020-08-25T17:47:59","18 SPCS","COSMOS 2498","2014-028C","EARTH","TEME","UTC","SGP4","2020-08-25T11:10:20.243712","12.42888000","0.00207980","82.4514","357.8498","17.6035","342.5767","0","U","39763","999","28401","-0.00005085600000","0.00000003","0.0000000000000","7872.521","115.859","1510.759","1478.013","PAYLOAD","LARGE","CIS","2014-05-23","PKMTR","","2808324","160125190","0 COSMOS 2498","1 39763U 14028C   20238.46551208 +.00000003 +00000-0 -50856-4 0  9991","2 39763 082.4514 357.8498 0020798 017.6035 342.5767 12.42888000284018"
"2.0","GENERATED VIA SPACE-TRACK.ORG API","2020-08-25T14:16:09","18 SPCS","COSMOS 1732","1986-015A","EARTH","TEME","UTC","SGP4","2020-08-25T10:13:45.833088","12.40986255","0.00270000","73.6078","268.7118","224.8555","135.0307","0","U","16593","999","56483","-0.00000938780000","-0.00000019","0.0000000000000","7880.562","116.036","1523.704","1481.149","PAYLOAD","LARGE","CIS","1986-02-11","PKMTR","","2808184","160107003","0 COSMOS 1732","1 16593U 86015A   20238.42622492 -.00000019  00000-0 -93878-5 0  9992","2 16593  73.6078 268.7118 0027000 224.8555 135.0307 12.40986255564837"
"2.0","GENERATED VIA SPACE-TRACK.ORG API","2020-08-25T06:36:10","18 SPCS","COSMOS 2498","2014-028C","EARTH","TEME","UTC","SGP4","2020-08-25T05:22:35.475744","12.42887971","0.00208230","82.4512","358.0012","18.1421","342.0400","0","U","39763","999","28398","-0.00006953200000","0.00000000","0.0000000000000","7872.521","115.859","1510.779","1477.993","PAYLOAD","LARGE","CIS","2014-05-23","PKMTR","","2808039","160104634","0 COSMOS 2498","1 39763U 14028C   20238.22402171  .00000000  00000-0 -69532-4 0  9997","2 39763  82.4512 358.0012 0020823  18.1421 342.0400 12.42887971283985"
"2.0","GENERATED VIA SPACE-TRACK.ORG API","2020-08-25T05:18:38","18 SPCS","COSMOS 2498","2014-028C","EARTH","TEME","UTC","SGP4","2020-08-24T17:47:05.944992","12.42887947","0.00208210","82.4514","358.3037","19.1918","340.9951","0","U","39763","999","28392","-0.00009591200000","-0.00000003","0.0000000000000","7872.521","115.859","1510.777","1477.995","PAYLOAD","LARGE","CIS","2014-05-23","PKMTR","","2807960","160078465","0 COSMOS 2498","1 39763U 14028C   20237.74104103 -.00000003 +00000-0 -95912-4 0  9992","2 39763 082.4514 358.3037 0020821 019.1918 340.9951 12.42887947283922"
"2.0","GENERATED VIA SPACE-TRACK.ORG API","2020-08-24T19:45:39","18 SPCS","COSMOS 1732","1986-015A","EARTH","TEME","UTC","SGP4","2020-08-24T12:56:56.946336","12.40986263","0.00270110","73.6080","269.9002","226.1017","133.7796","0","U","16593","999","56448","-0.00004056400000","-0.00000023","0.0000000000000","7880.562","116.036","1523.713","1481.140","PAYLOAD","LARGE","CIS","1986-02-11","PKMTR","","2807777","160021083","0 COSMOS 1732","1 16593U 86015A   20237.53954799 -.00000023 +00000-0 -40564-4 0  9999","2 16593 073.6080 269.9002 0027011 226.1017 133.7796 12.40986263564482"
"2.0","GENERATED VIA SPACE-TRACK.ORG API","2020-08-24T19:45:39","18 SPCS","COSMOS 2498","2014-028C","EARTH","TEME","UTC","SGP4","2020-08-24T11:59:21.168384","12.42887883","0.00208370","82.4512","358.4548","19.6776","340.5102","0","U","39763","999","28389","-0.00012834000000","-0.00000008","0.0000000000000","7872.521","115.859","1510.790","1477.982","PAYLOAD","LARGE","CIS","2014-05-23","PKMTR","","2807777","160032333","0 COSMOS 2498","1 39763U 14028C   20237.49955056 -.00000008 +00000-0 -12834-3 0  9991","2 39763 082.4512 358.4548 0020837 019.6776 340.5102 12.42887883283891"
"2.0","GENERATED VIA SPACE-TRACK.ORG API","2020-08-23T22:36:09","18 SPCS","COSMOS 2498","2014-028C","EARTH","TEME","UTC","SGP4","2020-08-23T20:32:01.781952","12.42887887","0.00208760","82.4507","358.8583","21.0546","339.1388","0","U","39763","999","28381","-0.00013336000000","-0.00000009","0.0000000000000","7872.521","115.859","1510.821","1477.952","PAYLOAD","LARGE","CIS","2014-05-23","PKMTR","","2807283","159986695","0 COSMOS 2498","1 39763U 14028C   20236.85557618 -.00000009  00000-0 -13336-3 0  9991","2 39763  82.4507 358.8583 0020876  21.0546 339.1388 12.42887887283819"
"2.0","GENERATED VIA SPACE-TRACK.ORG API","2020-08-23T17:26:13","18 SPCS","COSMOS 2498","2014-028C","EARTH","TEME","UTC","SGP4","2020-08-23T14:44:17.016576","12.42887928","0.00208840","82.4507","359.0096","21.5756","338.6204","0","U","39763","999","28378","-0.00010604000000","-0.00000005","0.0000000000000","7872.521","115.859","1510.827","1477.945","PAYLOAD","LARGE","CIS","2014-05-23","PKMTR","","2807181","159958708","0 COSMOS 2498","1 39763U 14028C   20236.61408584 -.00000005 +00000-0 -10604-3 0  9993","2 39763 082.4507 359.0096 0020884 021.5756 338.6204 12.42887928283781"
